NORAD_CAT_ID,OBJECT_NAME,OBJECT_TYPE,EPOCH,MEAN_MOTION,ECCENTRICITY,INCLINATION,RA_OF_ASC_NODE,ARG_OF_PERICENTER,MEAN_ANOMALY,BSTAR,MEAN_MOTION_DOT,MEAN_MOTION_DDOT,TLE_LINE0,TLE_LINE1,TLE_LINE2,SEMIMAJOR_AXIS,PERIOD,APOGEE,PERIGEE,DECAYED
52625.0,STARLINK-3988,PAYLOAD,2023-10-18 02:04:20,15.08837629,0.0001936,53.2185,230.8805,89.1705,270.9509,-5.5042e-05,-1.164e-05,0.0,0 STARLINK-3988,1 52625U 22052AD  23291.08634845 -.00001164  00000-0 -55042-4 0  9990,2 52625  53.2185 230.8805 0001936  89.1705 270.9509 15.08837629 79480,6917.888,95.438,541.092,538.413,0.0
52625.0,STARLINK-3988,PAYLOAD,2023-10-18 19:33:35,15.08840431,0.0001613,53.2166,227.607,84.7011,275.4165,7.3517e-05,8.82e-06,0.0,0 STARLINK-3988,1 52625U 22052AD  23291.81498848  .00000882  00000-0  73517-4 0  9993,2 52625  53.2166 227.6070 0001613  84.7011 275.4165 15.08840431 79214,6917.879,95.438,540.86,538.628,0.0
52625.0,STARLINK-3988,PAYLOAD,2023-10-19 03:30:30,15.08853995,0.0001767,53.2172,226.1197,88.5298,271.5896,0.00036894,5.591e-05,0.0,0 STARLINK-3988,1 52625U 22052AD  23292.14618338  .00005591  00000-0  36894-3 0  9996,2 52625  53.2172 226.1197 0001767  88.5298 271.5896 15.08853995 79648,6917.838,95.437,540.925,538.48,0.0
52625.0,STARLINK-3988,PAYLOAD,2023-10-19 19:24:21,15.08846777,0.0001439,53.2172,223.147,99.2153,260.9002,0.0002847,4.247e-05,0.0,0 STARLINK-3988,1 52625U 22052AD  23292.80858535  .00004247  00000-0  28470-3 0  9992,2 52625  53.2172 223.1470 0001439  99.2153 260.9002 15.08846777 79746,6917.86,95.437,540.72,538.729,0.0
52625.0,STARLINK-3988,PAYLOAD,2023-10-20 01:45:53,15.08855647,0.0001575,53.2175,221.9591,98.6101,261.5069,0.00038022,5.771e-05,0.0,0 STARLINK-3988,1 52625U 22052AD  23293.07354107  .00005771  00000-0  38022-3 0  9995,2 52625  53.2175 221.9591 0001575  98.6101 261.5069 15.08855647 79405,6917.833,95.437,540.787,538.608,0.0
52625.0,STARLINK-3988,PAYLOAD,2023-10-21 01:36:41,15.08836217,0.0001614,53.2185,217.4966,104.6734,255.4437,-3.2147e-05,-8e-06,0.0,0 STARLINK-3988,1 52625U 22052AD  23294.06715059 -.00000800  00000-0 -32147-4 0  9995,2 52625  53.2185 217.4966 0001614 104.6734 255.4437 15.08836217 79937,6917.892,95.438,540.873,538.64,0.0
52625.0,STARLINK-3988,PAYLOAD,2023-10-21 04:47:28,15.08837019,0.0001601,53.2182,216.9015,104.615,255.5019,2.1252e-05,5e-07,0.0,0 STARLINK-3988,1 52625U 22052AD  23294.19963106  .00000050  00000-0  21252-4 0  9997,2 52625  53.2182 216.9015 0001601 104.6150 255.5019 15.08837019 79579,6917.89,95.438,540.862,538.647,0.0
52625.0,STARLINK-3988,PAYLOAD,2023-10-21 22:16:41,15.08857444,0.0001322,53.2191,213.6348,74.0698,286.044,0.0004059,6.181e-05,0.0,0 STARLINK-3988,1 52625U 22052AD  23294.92825849  .00006181  00000-0  40590-3 0  9995,2 52625  53.2191 213.6348 0001322  74.0698 286.0440 15.08857444 79682,6917.827,95.436,540.607,538.778,0.0
52625.0,STARLINK-3988,PAYLOAD,2023-10-22 01:27:27,15.08874856,0.0001542,53.2177,213.0383,103.0122,257.1042,0.00090434,0.00014148,0.0,0 STARLINK-3988,1 52625U 22052AD  23295.06073241  .00014148  00000-0  90434-3 0  9996,2 52625  53.2177 213.0383 0001542 103.0122 257.1042 15.08874856 80087,6917.774,95.435,540.706,538.572,0.0
52625.0,STARLINK-3988,PAYLOAD,2023-10-22 04:38:13,15.08880241,0.0001437,53.2172,212.4431,105.258,254.8571,0.00096452,0.00015113,0.0,0 STARLINK-3988,1 52625U 22052AD  23295.19320801  .00015113  00000-0  96452-3 0  9996,2 52625  53.2172 212.4431 0001437 105.2580 254.8571 15.08880241 79729,6917.757,95.435,540.616,538.628,0.0
52625.0,STARLINK-3988,PAYLOAD,2023-10-22 22:07:29,15.08834189,0.0001598,53.2184,209.1787,59.5137,300.6013,-0.00027665,-4.688e-05,0.0,0 STARLINK-3988,1 52625U 22052AD  23295.92186595 -.00004688  00000-0 -27665-3 0  9994,2 52625  53.2184 209.1787 0001598  59.5137 300.6013 15.08834189 79839,6917.898,95.438,540.869,538.658,0.0
52625.0,STARLINK-3988,PAYLOAD,2023-10-23 01:18:14,15.08863474,0.0001701,53.2182,208.5825,106.1874,253.9306,0.00033203,5.004e-05,0.0,0 STARLINK-3988,1 52625U 22052AD  23296.05433510  .00005004  00000-0  33203-3 0  9997,2 52625  53.2182 208.5825 0001701 106.1874 253.9306 15.08863474 80236,6917.809,95.436,540.85,538.497,0.0
52625.0,STARLINK-3988,PAYLOAD,2023-10-23 21:58:15,15.08827017,0.0001753,53.2175,204.7094,114.9393,245.1781,0.00014429,2.008e-05,0.0,0 STARLINK-3988,1 52625U 22052AD  23296.91546150  .00002008  00000-0  14429-3 0  9997,2 52625  53.2175 204.7094 0001753 114.9393 245.1781 15.08827017 79987,6917.92,95.438,540.998,538.572,0.0
52625.0,STARLINK-3988,PAYLOAD,2023-10-24 02:44:25,15.08823751,0.0001457,53.2172,203.8189,98.1717,261.944,-0.00012806,-2.325e-05,0.0,0 STARLINK-3988,1 52625U 22052AD  23297.11418475 -.00002325  00000-0 -12806-3 0  9999,2 52625  53.2172 203.8189 0001457  98.1717 261.9440 15.08823751 80399,6917.93,95.439,540.803,538.787,0.0
52625.0,STARLINK-3988,PAYLOAD,2023-10-24 10:41:21,15.08828781,0.0001432,53.2173,202.3323,97.0844,263.0311,-3.9417e-05,-9.15e-06,0.0,0 STARLINK-3988,1 52625U 22052AD  23297.44538729 -.00000915  00000-0 -39417-4 0  9991,2 52625  53.2173 202.3323 0001432  97.0844 263.0311 15.08828781 80068,6917.915,95.438,540.77,538.789,0.0
52625.0,STARLINK-3988,PAYLOAD,2023-10-25 02:35:13,15.08842295,0.0001509,53.2174,199.3599,103.9839,256.1321,0.00067682,0.00010501,0.0,0 STARLINK-3988,1 52625U 22052AD  23298.10779289  .00010501  00000-0  67682-3 0  9997,2 52625  53.2174 199.3599 0001509 103.9839 256.1321 15.08842295 80548,6917.873,95.437,540.782,538.694,0.0
52625.0,STARLINK-3988,PAYLOAD,2023-10-25 21:39:51,15.08841541,0.0001573,53.2175,195.7924,108.0436,252.0728,0.00028133,4.192e-05,0.0,0 STARLINK-3988,1 52625U 22052AD  23298.90267469  .00004192  00000-0  28133-3 0  9994,2 52625  53.2175 195.7924 0001573 108.0436 252.0728 15.08841541 80281,6917.876,95.437,540.829,538.652,0.0
52625.0,STARLINK-3988,PAYLOAD,2023-10-26 02:26:00,15.08852262,0.0001444,53.2165,194.8987,102.266,257.8494,0.00059317,9.168e-05,0.0,0 STARLINK-3988,1 52625U 22052AD  23299.10139293  .00009168  00000-0  59317-3 0  9996,2 52625  53.2165 194.8987 0001444 102.2660 257.8494 15.08852262 80691,6917.843,95.437,540.707,538.709,0.0
52625.0,STARLINK-3988,PAYLOAD,2023-10-26 21:30:37,15.08849972,0.000169,53.2171,191.3275,102.7642,257.3539,0.00073624,0.00011452,0.0,0 STARLINK-3988,1 52625U 22052AD  23299.89627311  .00011452  00000-0  73624-3 0  9991,2 52625  53.2171 191.3275 0001690 102.7642 257.3539 15.08849972 80439,6917.85,95.437,540.884,538.546,0.0
52625.0,STARLINK-3988,PAYLOAD,2023-10-27 02:16:47,15.08856391,0.0001506,53.2167,190.4353,104.4108,255.7052,0.00068582,0.00010649,0.0,0 STARLINK-3988,1 52625U 22052AD  23300.09498944  .00010649  00000-0  68582-3 0  9998,2 52625  53.2167 190.4353 0001506 104.4108 255.7052 15.08856391 80843,6917.83,95.437,540.737,538.653,0.0
52625.0,STARLINK-3988,PAYLOAD,2023-10-27 10:13:42,15.08849998,0.0001514,53.2172,188.9468,123.2404,236.8733,0.00029408,4.397e-05,0.0,0 STARLINK-3988,1 52625U 22052AD  23300.42618910  .00004397  00000-0  29408-3 0  9999,2 52625  53.2172 188.9468 0001514 123.2404 236.8733 15.08849998 80891,6917.85,95.437,540.762,538.667,0.0
52625.0,STARLINK-3988,PAYLOAD,2023-10-27 22:56:47,15.08845167,0.0001736,53.2171,186.5688,112.0956,248.022,0.00023249,3.414e-05,0.0,0 STARLINK-3988,1 52625U 22052AD  23300.95611055  .00003414  00000-0  23249-3 0  9996,2 52625  53.2171 186.5688 0001736 112.0956 248.0220 15.08845167 80599,6917.865,95.437,540.931,538.529,0.0
52625.0,STARLINK-3988,PAYLOAD,2023-10-28 21:12:12,15.08847829,0.000129,53.2169,182.4087,93.9553,266.1587,0.00039021,5.929e-05,0.0,0 STARLINK-3988,1 52625U 22052AD  23301.88347669  .00005929  00000-0  39021-3 0  9994,2 52625  53.2169 182.4087 0001290  93.9553 266.1587 15.08847829 81112,6917.856,95.437,540.614,538.829,0.0
52625.0,STARLINK-3988,PAYLOAD,2023-10-28 22:47:35,15.08839313,0.0001466,53.2167,182.1118,96.7714,263.3445,0.00036033,5.451e-05,0.0,0 STARLINK-3988,1 52625U 22052AD  23301.94971901  .00005451  00000-0  36033-3 0  9993,2 52625  53.2167 182.1118 0001466  96.7714 263.3445 15.08839313 80746,6917.882,95.438,540.762,538.733,0.0
52625.0,STARLINK-3988,PAYLOAD,2023-10-29 01:58:21,15.08842304,0.0001565,53.2168,181.517,96.0331,264.084,0.00044462,6.796e-05,0.0,0 STARLINK-3988,1 52625U 22052AD  23302.08219896  .00006796  00000-0  44462-3 0  9995,2 52625  53.2168 181.5170 0001565  96.0331 264.0840 15.08842304 80769,6917.873,95.437,540.821,538.656,0.0
52625.0,STARLINK-3988,PAYLOAD,2023-10-29 22:38:21,15.08881808,0.0001492,53.2161,177.6501,91.8701,268.2462,0.0013741,0.00021674,0.0,0 STARLINK-3988,1 52625U 22052AD  23302.94330465  .00021674  00000-0  13741-2 0  9993,2 52625  53.2161 177.6501 0001492  91.8701 268.2462 15.08881808 80891,6917.753,95.435,540.65,538.585,0.0
52625.0,STARLINK-3988,PAYLOAD,2023-10-30 01:49:07,15.08881396,0.0001488,53.2163,177.056,91.9177,268.1986,0.0012072,0.00018999,0.0,0 STARLINK-3988,1 52625U 22052AD  23303.07577878  .00018999  00000-0  12072-2 0  9991,2 52625  53.2163 177.0560 0001488  91.9177 268.1986 15.08881396 81292,6917.754,95.435,540.648,538.589,0.0
52625.0,STARLINK-3988,PAYLOAD,2023-10-30 20:53:45,15.08836657,0.0001447,53.2164,173.4895,98.2844,261.8313,-0.00024569,-4.196e-05,0.0,0 STARLINK-3988,1 52625U 22052AD  23303.87066969 -.00004196  00000-0 -24569-3 0  9994,2 52625  53.2164 173.4895 0001447  98.2844 261.8313 15.08836657 81418,6917.891,95.438,540.757,538.755,0.0
52625.0,STARLINK-3988,PAYLOAD,2023-10-30 22:29:08,15.0883352,0.0001458,53.2161,173.1906,102.325,257.7906,-0.00012829,-2.329e-05,0.0,0 STARLINK-3988,1 52625U 22052AD  23303.93690937 -.00002329  00000-0 -12829-3 0  9991,2 52625  53.2161 173.1906 0001458 102.3250 257.7906 15.08833520 81042,6917.9,95.438,540.774,538.757,0.0
52625.0,STARLINK-3988,PAYLOAD,2023-10-31 08:01:28,15.08827845,0.0001447,53.2158,171.4072,104.5461,255.5692,0.00039973,6.077e-05,0.0,0 STARLINK-3988,1 52625U 22052AD  23304.33435531  .00006077  00000-0  39973-3 0  9994,2 52625  53.2158 171.4072 0001447 104.5461 255.5692 15.08827845 81107,6917.918,95.438,540.784,538.782,0.0
